STARLINK-1776           
1 46682U 20073N   24116.14106603 -.00001314  00000+0 -69346-4 0  9995
2 46682  53.0550  85.1744 0001862 121.3375 238.7796 15.06395541193895
STARLINK-1780           
1 46684U 20073Q   24116.26223207 -.00006860  00000+0 -44216-3 0  9999
2 46684  53.0537  69.6386 0001270  81.6156 278.4977 15.06391548194121
STARLINK-1781           
1 46685U 20073R   24116.21113603 -.00001181  00000+0 -60387-4 0  9992
2 46685  53.0542  85.1387 0001495  91.9273 268.1888 15.06401335193891
STARLINK-1783           
1 46686U 20073S   24116.58335648  .00292613  00000+0  29254-2 0  9994
2 46686  53.0464  71.0689 0001070 118.2655  44.7792 15.64131499  5888
STARLINK-1784           
1 46687U 20073T   24116.08716602  .00024375  00000+0  16496-2 0  9995
2 46687  53.0561  50.4248 0000639 109.3994 250.7064 15.06401032194379
STARLINK-1788           
1 46689U 20073V   24116.57239857  .00002303  00000+0  17348-3 0  9998
2 46689  53.0538  83.9039 0001523  85.6834 274.4329 15.06400455195192
STARLINK-1789           
1 46690U 20073W   24116.11203809  .00018852  00000+0  12814-2 0  9996
2 46690  53.0545  60.3149 0001245 157.8434 202.2609 15.06390820194230
STARLINK-1790           
1 46691U 20073X   24116.11111543  .00000750  00000+0  69229-4 0  9992
2 46691  53.0546  70.3171 0001448  99.3705 260.7448 15.06403396194091
STARLINK-1791           
1 46692U 20073Y   24116.29587839 -.00001495  00000+0 -81472-4 0  9990
2 46692  53.0553  84.4872 0001446  97.0712 263.0441 15.06400999193910
STARLINK-1792           
1 46693U 20073Z   24116.18114995  .00003538  00000+0  25646-3 0  9996
2 46693  53.0557  70.0043 0001491 102.4272 257.6884 15.06373644194106
STARLINK-1793           
1 46694U 20073AA  24116.07242692 -.00000408  00000+0 -84753-5 0  9992
2 46694  53.0549  50.4931 0001161  83.2939 276.8182 15.06394764194375
STARLINK-1795           
1 46696U 20073AC  24116.82066014  .00010120  00000+0  69708-3 0  9990
2 46696  53.0569  47.1306 0001932 146.2992 213.8120 15.06411853194960
STARLINK-1797           
1 46698U 20073AE  24116.27972544  .00004320  00000+0  30870-3 0  9998
2 46698  53.0550  69.5480 0001120  70.2125 289.8985 15.06398914194128
STARLINK-1799           
1 46699U 20073AF  24116.28436339 -.00000012  00000+0  18078-4 0  9999
2 46699  53.0546  69.5387 0001176  99.6549 260.4573 15.06402964194125
STARLINK-1800           
1 46700U 20073AG  24116.28851742 -.00002818  00000+0 -17042-3 0  9997
2 46700  53.0533  84.5230 0001360  94.0257 266.0888 15.06388543193911
STARLINK-1801           
1 46701U 20073AH  24116.25487349 -.00001794  00000+0 -10158-3 0  9996
2 46701  53.0545  69.6715 0001129  90.0352 270.0766 15.06399689194129
STARLINK-1802           
1 46702U 20073AJ  24116.20143463  .00017223  00000+0  11724-2 0  9999
2 46702  53.0542  49.9175 0001273 104.2939 255.8191 15.06397036194393
STARLINK-1803           
1 46703U 20073AK  24116.29909932 -.00001407  00000+0 -75633-4 0  9990
2 46703  53.0543  69.4747 0001379  85.4135 274.7012 15.06387375194603
STARLINK-1804           
1 46704U 20073AL  24116.58335648  .00018099  00000+0  13305-3 0  9990
2 46704  53.0521  30.4890 0000980  86.8543  94.9647 15.73203975  5998
STARLINK-1805           
1 46705U 20073AM  24116.29218848  .00001476  00000+0  11797-3 0  9995
2 46705  53.0528  84.5044 0001098 109.0836 251.0272 15.06397311193915
STARLINK-1807           
1 46706U 20073AN  24116.13324087  .00005605  00000+0  39480-3 0  9999
2 46706  53.0543  70.2199 0001425  88.8918 271.2234 15.06408668194107
STARLINK-1808           
1 46707U 20073AP  24116.25671858  .00013658  00000+0  93422-3 0  9997
2 46707  53.0546  49.6691 0001313 115.4203 244.6922 15.06391795194401
STARLINK-1810           
1 46709U 20073AR  24116.20006128  .00001240  00000+0  10211-3 0  9995
2 46709  53.0537  85.0314 0001391  95.6009 264.5139 15.06404358193891
STARLINK-1813           
1 46711U 20073AT  24116.19222067  .00001026  00000+0  87799-4 0  9996
2 46711  53.0538  69.9508 0001403  99.0467 261.0680 15.06398670194119
STARLINK-1814           
1 46712U 20073AU  24116.17010856  .00000313  00000+0  39942-4 0  9991
2 46712  53.0543  70.1801 0001531 107.5314 252.5842 15.06400410194104
STARLINK-1815           
1 46713U 20073AV  24116.10279618 -.00003138  00000+0 -19186-3 0  9995
2 46713  53.0548  70.3451 0001568 112.4774 247.6381 15.06397199194098
STARLINK-1816           
1 46714U 20073AW  24116.09268914  .00002295  00000+0  17286-3 0  9991
2 46714  53.0552  70.3990 0001540 110.9171 249.1983 15.06408238194098
STARLINK-1817           
1 46715U 20073AX  24116.88517383  .00003358  00000+0  24433-3 0  9999
2 46715  53.0555  66.8408 0001432  97.3943 262.7209 15.06379875194693
STARLINK-1818           
1 46716U 20073AY  24116.23690946  .00000985  00000+0  85012-4 0  9990
2 46716  53.0542  84.7545 0001440  97.5715 262.5438 15.06401886193902
STARLINK-1820           
1 46717U 20073AZ  24116.30647433  .00002194  00000+0  16611-3 0  9994
2 46717  53.0548  69.4423 0001420  96.2020 263.9131 15.06402473194120
STARLINK-1821           
1 46718U 20073BA  24116.28482957 -.00001497  00000+0 -81619-4 0  9998
2 46718  53.0536  84.5733 0001355 114.8373 245.2757 15.06397191193918
STARLINK-1822           
1 46719U 20073BB  24116.19776215  .00004406  00000+0  31463-3 0  9994
2 46719  53.0558  49.9330 0001340  90.8172 269.2971 15.06383069194391
STARLINK-1825           
1 46722U 20073BE  24116.12706907  .00022878  00000+0  14320-3 0  9998
2 46722  53.0478  54.8354 0001494 132.8667 227.2478 15.76758210194312
STARLINK-1826           
1 46723U 20073BF  24116.20005439  .00012292  00000+0  84285-3 0  9996
2 46723  53.0557  44.9177 0001610 133.7099 226.4023 15.06390597194942
STARLINK-1828           
1 46725U 20073BH  24116.33642240 -.00000789  00000+0 -34068-4 0  9994
2 46725  53.0549  84.3046 0001102  87.1226 272.9889 15.06400552193924
STARLINK-1829           
1 46726U 20073BJ  24116.89158148  .00002621  00000+0  19475-3 0  9994
2 46726  53.0542  66.7993 0001517 120.3413 239.7726 15.06412095194692
STARLINK-1830           
1 46727U 20073BK  24116.18530193 -.00004912  00000+0 -31117-3 0  9995
2 46727  53.0554  44.9826 0001237 110.5720 249.5402 15.06390497194466
STARLINK-1848           
1 46740U 20074B   24116.47741920  .00001427  00000+0  11469-3 0  9999
2 46740  53.0551 153.6747 0001699  98.6508 261.4673 15.06393204193629
STARLINK-1865           
1 46741U 20074C   24116.36177930  .00004254  00000+0  30421-3 0  9992
2 46741  53.0524 149.1943 0001500 118.2317 241.8823 15.06412391193680
STARLINK-1892           
1 46743U 20074E   24116.35438058  .00027722  00000+0  18696-2 0  9998
2 46743  53.0521 149.2287 0001574 110.4817 249.6341 15.06460447193687
STARLINK-1894           
1 46744U 20074F   24116.39864431  .00003631  00000+0  26236-3 0  9994
2 46744  53.0524 149.2989 0001906  89.9333 270.1875 15.06421033193681
STARLINK-1905           
1 46746U 20074H   24116.32121836 -.00000455  00000+0 -11625-4 0  9994
2 46746  53.0523 149.3642 0002082 112.0696 248.0514 15.06406361193675
STARLINK-1908           
1 46747U 20074J   24116.36913870  .00004458  00000+0  31787-3 0  9991
2 46747  53.0519 149.1684 0001658  64.9488 295.1673 15.06410494193689
STARLINK-1910           
1 46748U 20074K   24116.31015924  .00001836  00000+0  14212-3 0  9991
2 46748  53.0526 149.4183 0001559 122.3302 237.7838 15.06400269193672
STARLINK-1911           
1 46749U 20074L   24116.31753556  .00002973  00000+0  21844-3 0  9994
2 46749  53.0533 149.3843 0001474 107.2617 252.8534 15.06392447193691
STARLINK-1920           
1 46751U 20074N   24116.31385091  .00001947  00000+0  14956-3 0  9998
2 46751  53.0535 149.4098 0001659  96.7919 263.3259 15.06398534193695
STARLINK-1921           
1 46752U 20074P   24116.32490337 -.00002462  00000+0 -14646-3 0  9991
2 46752  53.0543 149.3561 0001768 106.0371 254.0813 15.06398511193673
STARLINK-1922           
1 46753U 20074Q   24116.35808441  .00000722  00000+0  67350-4 0  9990
2 46753  53.0528 149.2160 0001086  99.3709 260.7402 15.06401267193685
STARLINK-1923           
1 46754U 20074R   24116.36545220  .00002171  00000+0  16460-3 0  9990
2 46754  53.0520 149.1769 0001344  87.3621 272.7522 15.06400113193684
STARLINK-1924           
1 46755U 20074S   24116.37052473  .00003408  00000+0  24761-3 0  9992
2 46755  53.0529 154.1595 0001518  71.3745 288.7409 15.06398750193617
STARLINK-1925           
1 46756U 20074T   24116.33370552 -.00004313  00000+0 -27080-3 0  9995
2 46756  53.0544 154.7172 0001330  85.6226 274.4915 15.06399598193600
STARLINK-1926           
1 46757U 20074U   24116.58335648  .00485728  00000+0  16715-1 0  9992
2 46757  53.0547 150.6859 0001520  68.9505 104.5662 15.27443402  5810
STARLINK-1928           
1 46758U 20074V   24116.35210208  .00010491  00000+0  72197-3 0  9991
2 46758  53.0532 154.2409 0001358 121.5392 238.5730 15.06407969193610
STARLINK-1833           
1 46759U 20074W   24116.41383204  .00003417  00000+0  24812-3 0  9997
2 46759  53.0527 163.9616 0001383  93.0045 267.1102 15.06405958193479
STARLINK-1896           
1 46760U 20074X   24116.35855264  .00009563  00000+0  66017-3 0  9993
2 46760  53.0532 164.2014 0001798 105.7907 254.3280 15.06391685193477
STARLINK-1903           
1 46764U 20074AB  24116.41751143 -.00002380  00000+0 -14092-3 0  9993
2 46764  53.0535 163.9410 0001683  66.8030 293.3136 15.06394219193487
STARLINK-1906           
1 46765U 20074AC  24116.40646091 -.00006680  00000+0 -43034-3 0  9993
2 46765  53.0559 163.9907 0002084  89.9256 270.1972 15.06366993193475
STARLINK-1916           
1 46766U 20074AD  24116.39908905  .00012157  00000+0  83398-3 0  9998
2 46766  53.0533 164.0233 0002014 109.0575 251.0632 15.06384058193487
STARLINK-1917           
1 46767U 20074AE  24116.42857473  .00000165  00000+0  29972-4 0  9991
2 46767  53.0547 163.8886 0001166  98.3851 261.7270 15.06393110193483
